# Made by eph2tle, compiled Dec 27 2022 08:36:26
# Run at Wed Jan 18 11:59:21 2023
#
#    The following TLEs (Two-Line Elements) were generated by fitting
# a numerically-integrated ephemeris,  based on the orbit given below,
# to the SDP4/SGP4 models.  Each TLE is good for the interval between
# its epoch and the epoch of the subsequent TLE (usually one day).
# The maximum deviation between the numerically integrated ephemerides
# and the TLE-based ephemeris, in kilometers,  is given for each TLE
# as the "worst residual".
#
#    This fitting is done using the 'eph2tle' code packaged with Find_Orb.
# The code has details on how the TLEs were computed :
#
#    https://github.com/Bill-Gray/find_orb/eph2tle.cpp
#
#    Be warned:  the error given is that between the numerically
# integrated ephems and the TLE model.  There will usually be at
# least some additional difference between the ephems and the actual
# motion of the satellite,  especially if the ephemerides are based
# on a short arc.  If the following orbital elements say something
# like "[based on] 10 observations 2015 Jan. 1-13",  and the TLEs
# are for 2015 May,  the extrapolation may be tenuous at best.  If
# your application requires a specific level of accuracy,  you may
# want to contact me;  I can give you some idea as to the fit of the
# underlying data (and possibly TLEs based on newer data).
#
#   You can usually find the underlying observational data,  and the
# fitted orbit,  residuals,  ephemerides,  and sometimes some comments
# about the object,  among the pages listed at
#
#    https://www.projectpluto.com/pluto/mpecs/pseudo.htm
#
#    WARNING:  for this object,  "normal" TLEs cannot be fitted.  (This
# usually means an object with an hyperbolic or nearly-parabolic orbit.)
# For this and similar cases,   an alternative model is used,  in which
# most of the traditional TLE data is replaced by six signed 8-digit hex
# numbers.  These six numbers are a state vector,  numerically integrated
# using a simplified force model.  This is necessary for objects at L2 or
# L1,  and sometimes for objects in high orbits where the SDP4/SGP4 model
# fails.  Some documentation is in 'get_el.cpp' in the source code at
# https://www.github.com/Bill-Gray/sat_code ; look for 'hex' in that file,
# with the actual integration done in 'sdp4.cpp'.  But be aware:  it's my
# own extension,  doesn't work with other code,  and is therefore used
# only when necessary.
#
#    Also,  if you use a TLE outside the "correct" time range (between
# its MJD and that of the next TLE),  all bets are off.  I've carefully
# computed and minimized the worst error over the "correct" time frame,
# but the ephemeris may (or may not) diverge wildly outside of it.
#
# Ephem range: 59945.000000 60310.000000 1.000000
# Created Wed Jan 18 11:59:15 2023
# Ephemeris start:  1 Jan 2023  0:00:00
# Ephemeris end:    1 Jan 2024  0:00:00
# Times are all TDT
# Positions/velocities are in equatorial J2000
# Orbital elements:  2019-040A = NORAD 44432 = Spektr-RG
#    Perihelion 2022 Dec 25.02310 +/- 0.00259 TT =  0:33:16 (JD 2459938.52310)
# Epoch 2022 Dec 22.0 TT; AMR 0.011593 +/- 0.00495 m^2/kg   Earth MOID: 0.0105
# M 357.15017190 +/- 0.0024           (J2000 ecliptic)             Find_Orb
# n   0.94268322 +/- 5.06e-6          Peri.   38.99760 +/- 0.0047
# a   1.03013038 +/- 3.68e-6          Node    53.99417 +/- 0.0021
# e   0.0350491 +/- 2.46e-6           Incl.    0.27753 +/- 0.000038
# P   1.05/381.88d           H 27.17  G  0.15   U  4.6
# q 0.99402524 +/- 1.02e-6    Q 1.06623552 +/- 6.35e-6
# 39 of 1704 observations 2022 Nov. 27-2023 Jan. 15; mean residual 0".349
#
# 1 NoradU COSPAR   Epoch.epoch     dn/dt/2  d2n/dt2/6 BSTAR    T El# C
# 2 NoradU Inclina RAAscNode Eccent  ArgPeri MeanAno  MeanMotion Rev# C

# Worst residual: 0.37 km
# MJD 59945.000000 (2023 Jan  1  0:00)
2019-040A = NORAD 44432 = Spektr-RG
1 44432U 19040A   22365.99919926 -007XJMIH +00JQIN5D +00HRKDHUH 18444
2 44432                          -0000JLRF -00008TPD +0000BX3T     02

# Worst residual: 0.50 km
# MJD 59946.000000 (2023 Jan  2  0:00)
2019-040A = NORAD 44432 = Spektr-RG
1 44432U 19040A   23001.99919926 -008290SR +00JOEXOU +00HU9YY4H 18442
2 44432                          -0000JLFA -00008PJI +0000ANW6     05

# Worst residual: 0.60 km
# MJD 59947.000000 (2023 Jan  3  0:00)
2019-040A = NORAD 44432 = Spektr-RG
1 44432U 19040A   23002.99919926 -0086Y4FQ +00JMBYKX +00HWOHVSH 18449
2 44432                          -0000JJ80 -00008NHU +00009CWV     06

# Worst residual: 0.67 km
# MJD 59948.000000 (2023 Jan  4  0:00)
2019-040A = NORAD 44432 = Spektr-RG
1 44432U 19040A   23003.99919926 -008BMFMN +00JK9ACX +00HYRKI7H 18446
2 44432                          -0000JESM -00008MWU +000080ID     07

# Worst residual: 0.74 km
# MJD 59949.000000 (2023 Jan  5  0:00)
2019-040A = NORAD 44432 = Spektr-RG
1 44432U 19040A   23004.99919926 -008G9E7L +00JI6N70 +00I0IW2TH 18442
2 44432                          -0000J7YA -00008N54 +00006N1O     02

# Worst residual: 0.82 km
# MJD 59950.000000 (2023 Jan  6  0:00)
2019-040A = NORAD 44432 = Spektr-RG
1 44432U 19040A   23005.99919926 -008KUF29 +00JG3WUL +00I1Y921H 18449
2 44432                          -0000IYNS -00008NJI +000058WE     02

# Worst residual: 0.91 km
# MJD 59951.000000 (2023 Jan  7  0:00)
2019-040A = NORAD 44432 = Spektr-RG
1 44432U 19040A   23006.99919926 -008PCXE1 +00JE14KA +00I31J78H 18448
2 44432                          -0000IN0Y -00008NHL +00003UGF     02

# Worst residual: 1.00 km
# MJD 59952.000000 (2023 Jan  8  0:00)
2019-040A = NORAD 44432 = Spektr-RG
1 44432U 19040A   23007.99919926 -008TSDUI +00JBYGUG +00I3SPN5H 18442
2 44432                          -0000I99V -00008MDZ +00002G3U     02

# Worst residual: 1.07 km
# MJD 59953.000000 (2023 Jan  9  0:00)
2019-040A = NORAD 44432 = Spektr-RG
1 44432U 19040A   23008.99919926 -008Y4BGS +00J9W94Z +00I47UTJH 18442
2 44432                          -0000HTQ5 -00008JP2 +00001282     09

# Worst residual: 1.15 km
# MJD 59954.000000 (2023 Jan 10  0:00)
2019-040A = NORAD 44432 = Spektr-RG
1 44432U 19040A   23009.99919926 -0092CCEX +00J7UXBA +00I4B49BH 18443
2 44432                          -0000HCS9 -00008EXM -00000AUQ     09

# Worst residual: 1.24 km
# MJD 59955.000000 (2023 Jan 11  0:00)
2019-040A = NORAD 44432 = Spektr-RG
1 44432U 19040A   23010.99919926 -0096G6NH +00J5V11P +00I42Q7OH 18441
2 44432                          -0000GUXB -000087P7 -00001MU0     05

# Worst residual: 1.38 km
# MJD 59956.000000 (2023 Jan 12  0:00)
2019-040A = NORAD 44432 = Spektr-RG
1 44432U 19040A   23011.99919926 -009AFOJU +00J3X74Q +00I3IZ9HH 18446
2 44432                          -0000GCOZ -00007XOB -00002XGW     01

# Worst residual: 1.56 km
# MJD 59957.000000 (2023 Jan 13  0:00)
2019-040A = NORAD 44432 = Spektr-RG
1 44432U 19040A   23012.99919926 -009EATK3 +00J224SJ +00I2O7XDH 18441
2 44432                          -0000FUPX -00007KM5 -000046K3     07

# Worst residual: 1.72 km
# MJD 59958.000000 (2023 Jan 14  0:00)
2019-040A = NORAD 44432 = Spektr-RG
1 44432U 19040A   23013.99919926 -009I1QY0 +00J0AL0R +00I1IUBFH 18444
2 44432                          -0000FDQ5 -000074CT -00005DXM     03

# Worst residual: 1.77 km
# MJD 59959.000000 (2023 Jan 15  0:00)
2019-040A = NORAD 44432 = Spektr-RG
1 44432U 19040A   23014.99919926 -009LOSP9 +00IYNBUO +00I039TCH 18444
2 44432                          -0000EYJQ -00006KTO -00006JGX     04

# Worst residual: 1.64 km
# MJD 59960.000000 (2023 Jan 16  0:00)
2019-040A = NORAD 44432 = Spektr-RG
1 44432U 19040A   23015.99919926 -009P8ILE +00IX55FS +00HYDYO0H 18442
2 44432                          -0000EM5I -00005Y2N -00007N3G     04

# Worst residual: 1.31 km
# MJD 59961.000000 (2023 Jan 17  0:00)
2019-040A = NORAD 44432 = Spektr-RG
1 44432U 19040A   23016.99919926 -009SPPBS +00IVSSPH +00HWFDDSH 18445
2 44432                          -0000EDN1 -000058CG -00008OTT     04

# Worst residual: 0.91 km
# MJD 59962.000000 (2023 Jan 18  0:00)
2019-040A = NORAD 44432 = Spektr-RG
1 44432U 19040A   23017.99919926 -009W5FK3 +00IUMXDJ +00HU7XSTH 18441
2 44432                          -0000EA7B -00004G5Q -00009OTB     07

# Worst residual: 0.62 km
# MJD 59963.000000 (2023 Jan 19  0:00)
2019-040A = NORAD 44432 = Spektr-RG
1 44432U 19040A   23018.99919926 -009ZL2BM +00ITO16L +00HRS1PFH 18447
2 44432                          -0000ED0X -00003ME4 -0000ANE1     00

# Worst residual: 0.60 km
# MJD 59964.000000 (2023 Jan 20  0:00)
2019-040A = NORAD 44432 = Spektr-RG
1 44432U 19040A   23019.99919926 -00A3286X +00ISWCHN +00HP3Z1UH 18442
2 44432                          -0000EN3E -00002SC6 -0000BL41     08

# Worst residual: 0.82 km
# MJD 59965.000000 (2023 Jan 21  0:00)
2019-040A = NORAD 44432 = Spektr-RG
1 44432U 19040A   23020.99919926 -00A6MQIQ +00ISBQU1 +00HM7U0CH 18445
2 44432                          -0000F4Y7 -00001ZNJ -0000CIR3     07

# Worst residual: 1.08 km
# MJD 59966.000000 (2023 Jan 22  0:00)
2019-040A = NORAD 44432 = Spektr-RG
1 44432U 19040A   23021.99919926 -00AACGL3 +00IRXOHB +00HJ3JF5H 18443
2 44432                          -0000FUGU -00001A6C -0000DH7U     06

# Worst residual: 1.15 km
# MJD 59967.000000 (2023 Jan 23  0:00)
2019-040A = NORAD 44432 = Spektr-RG
1 44432U 19040A   23022.99919926 -00AE95B0 +00IRP636 +00HFQS81H 18441
2 44432                          -0000GQRJ -00000PMK -0000EHEH     02

# Worst residual: 0.97 km
# MJD 59968.000000 (2023 Jan 24  0:00)
2019-040A = NORAD 44432 = Spektr-RG
1 44432U 19040A   23023.99919926 -00AIE91G +00IRKV12 +00HC529HH 18443
2 44432                          -0000HSBE -00000BBC -0000FK12     05

# Worst residual: 0.66 km
# MJD 59969.000000 (2023 Jan 25  0:00)
2019-040A = NORAD 44432 = Spektr-RG
1 44432U 19040A   23024.99919926 -00AMST7A +00IRJ5VY +00H89QBNH 18444
2 44432                          -0000IX8R -000003Y9 -0000GPJB     02

